start=new Date('2022-06-08T00:00:00.000Z').valueOf();
sats=[{"CLASSIFICATION_TYPE":"U","BSTAR":"0.00007632300000","MEAN_ANOMALY":"296.5757","REV_AT_EPOCH":"10954","MEAN_MOTION_DOT":"0.00000856","APOAPSIS":"548.234","MEAN_MOTION":"15.06400674","REF_FRAME":"TEME","COUNTRY_CODE":"US","PERIAPSIS":"546.189","CENTER_NAME":"EARTH","TLE_LINE1":"1 45741U 20038M   22158.57146555  .00000856  00000-0  76323-4 0  9994","ARG_OF_PERICENTER":"63.5383","PERIOD":"95.592","NORAD_CAT_ID":"45741","DECAY_DATE":null,"INCLINATION":"53.0542","TLE_LINE2":"2 45741  53.0542 271.8197 0001476  63.5383 296.5757 15.06400674109546","EPHEMERIS_TYPE":"0","LAUNCH_DATE":"2020-06-13","SEMIMAJOR_AXIS":"6925.346","RCS_SIZE":"LARGE","OBJECT_ID":"2020-038M","MEAN_MOTION_DDOT":"0.0000000000000","ELEMENT_SET_NO":"999","ECCENTRICITY":"0.00014760","TIME_SYSTEM":"UTC","RA_OF_ASC_NODE":"271.8197","MEAN_ELEMENT_THEORY":"SGP4","EPOCH":"2022-06-07T13:42:54.623520","OBJECT_TYPE":"PAYLOAD","SITE":"AFETR","OBJECT_NAME":"STARLINK-1480","GP_ID":"205562688","FILE":"3484919"},{"TIME_SYSTEM":"UTC","ECCENTRICITY":"0.00017990","ELEMENT_SET_NO":"999","OBJECT_ID":"2020-038N","MEAN_MOTION_DDOT":"0.0000000000000","RCS_SIZE":"LARGE","FILE":"3485136","GP_ID":"205592946","OBJECT_TYPE":"PAYLOAD","SITE":"AFETR","OBJECT_NAME":"STARLINK-1481","RA_OF_ASC_NODE":"270.6422","MEAN_ELEMENT_THEORY":"SGP4","EPOCH":"2022-06-07T19:54:28.497600","PERIAPSIS":"545.986","MEAN_MOTION":"15.06394163","REF_FRAME":"TEME","COUNTRY_CODE":"US","BSTAR":"-0.00001848500000","MEAN_ANOMALY":"297.2179","CLASSIFICATION_TYPE":"U","MEAN_MOTION_DOT":"-0.00000557","REV_AT_EPOCH":"10956","APOAPSIS":"548.477","TLE_LINE2":"2 45742  53.0540 270.6422 0001799  62.8993 297.2179 15.06394163109563","LAUNCH_DATE":"2020-06-13","SEMIMAJOR_AXIS":"6925.366","EPHEMERIS_TYPE":"0","INCLINATION":"53.0540","PERIOD":"95.593","NORAD_CAT_ID":"45742","DECAY_DATE":null,"CENTER_NAME":"EARTH","TLE_LINE1":"1 45742U 20038N   22158.82949650 -.00000557  00000-0 -18485-4 0  9995","ARG_OF_PERICENTER":"62.8993"},{"TIME_SYSTEM":"UTC","ECCENTRICITY":"0.00021140","ELEMENT_SET_NO":"999","OBJECT_ID":"2020-038P","MEAN_MOTION_DDOT":"0.0000000000000","RCS_SIZE":"LARGE","FILE":"3484955","GP_ID":"205568823","SITE":"AFETR","OBJECT_TYPE":"PAYLOAD","OBJECT_NAME":"STARLINK-1483","RA_OF_ASC_NODE":"271.6778","MEAN_ELEMENT_THEORY":"SGP4","EPOCH":"2022-06-07T13:57:27.970272","PERIAPSIS":"545.728","MEAN_MOTION":"15.06406898","REF_FRAME":"TEME","COUNTRY_CODE":"US","BSTAR":"0.00008110400000","MEAN_ANOMALY":"318.4396","CLASSIFICATION_TYPE":"U","MEAN_MOTION_DOT":"0.00000927","REV_AT_EPOCH":"11050","APOAPSIS":"548.656","TLE_LINE2":"2 45743  53.0618 271.6778 0002114  41.6754 318.4396 15.06406898110509","EPHEMERIS_TYPE":"0","LAUNCH_DATE":"2020-06-13","SEMIMAJOR_AXIS":"6925.327","INCLINATION":"53.0618","PERIOD":"95.592","NORAD_CAT_ID":"45743","DECAY_DATE":null,"CENTER_NAME":"EARTH","TLE_LINE1":"1 45743U 20038P   22158.58157373  .00000927  00000-0  81104-4 0  9999","ARG_OF_PERICENTER":"41.6754"},{"CLASSIFICATION_TYPE":"U","BSTAR":"0.00010314000000","MEAN_ANOMALY":"299.2981","REV_AT_EPOCH":"10956","MEAN_MOTION_DOT":"0.00001255","APOAPSIS":"548.347","MEAN_MOTION":"15.06399899","REF_FRAME":"TEME","COUNTRY_CODE":"US","PERIAPSIS":"546.081","CENTER_NAME":"EARTH","TLE_LINE1":"1 45744U 20038Q   22158.75207796  .00001255  00000-0  10314-3 0  9993","ARG_OF_PERICENTER":"60.8172","PERIOD":"95.592","NORAD_CAT_ID":"45744","DECAY_DATE":null,"INCLINATION":"53.0561","TLE_LINE2":"2 45744  53.0561 270.9900 0001636  60.8172 299.2981 15.06399899109563","LAUNCH_DATE":"2020-06-13","SEMIMAJOR_AXIS":"6925.349","EPHEMERIS_TYPE":"0","RCS_SIZE":"LARGE","OBJECT_ID":"2020-038Q","MEAN_MOTION_DDOT":"0.0000000000000","ELEMENT_SET_NO":"999","ECCENTRICITY":"0.00016360","TIME_SYSTEM":"UTC","RA_OF_ASC_NODE":"270.9900","MEAN_ELEMENT_THEORY":"SGP4","EPOCH":"2022-06-07T18:02:59.535744","SITE":"AFETR","OBJECT_TYPE":"PAYLOAD","OBJECT_NAME":"STARLINK-1500","GP_ID":"205592447","FILE":"3485136"},{"MEAN_MOTION_DDOT":"0.0000000000000","OBJECT_ID":"2020-038R","RCS_SIZE":"LARGE","TIME_SYSTEM":"UTC","ECCENTRICITY":"0.00013470","ELEMENT_SET_NO":"999","OBJECT_NAME":"STARLINK-1503","OBJECT_TYPE":"PAYLOAD","SITE":"AFETR","EPOCH":"2022-06-07T16:11:31.187328","MEAN_ELEMENT_THEORY":"SGP4","RA_OF_ASC_NODE":"271.3401","FILE":"3485136","GP_ID":"205592697","APOAPSIS":"548.140","REV_AT_EPOCH":"10954","MEAN_MOTION_DOT":"0.00000730","BSTAR":"0.00006790500000","MEAN_ANOMALY":"292.2686","CLASSIFICATION_TYPE":"U","PERIAPSIS":"546.274","COUNTRY_CODE":"US","REF_FRAME":"TEME","MEAN_MOTION":"15.06402055","DECAY_DATE":null,"NORAD_CAT_ID":"45745","PERIOD":"95.592","ARG_OF_PERICENTER":"67.8445","TLE_LINE1":"1 45745U 20038R   22158.67466652  .00000730  00000-0  67905-4 0  9999","CENTER_NAME":"EARTH","SEMIMAJOR_AXIS":"6925.342","LAUNCH_DATE":"2020-06-13","EPHEMERIS_TYPE":"0","TLE_LINE2":"2 45745  53.0540 271.3401 0001347  67.8445 292.2686 15.06402055109543","INCLINATION":"53.0540"},{"EPHEMERIS_TYPE":"0","LAUNCH_DATE":"2020-06-13","SEMIMAJOR_AXIS":"6925.350","TLE_LINE2":"2 45746  53.0573 271.2765 0001763  62.6681 297.4488 15.06399392109545","INCLINATION":"53.0573","DECAY_DATE":null,"NORAD_CAT_ID":"45746","PERIOD":"95.592","TLE_LINE1":"1 45746U 20038S   22158.68941824 -.00000127  00000-0  10375-4 0  9990","ARG_OF_PERICENTER":"62.6681","CENTER_NAME":"EARTH","PERIAPSIS":"545.994","COUNTRY_CODE":"US","REF_FRAME":"TEME","MEAN_MOTION":"15.06399392","APOAPSIS":"548.436","REV_AT_EPOCH":"10954","MEAN_MOTION_DOT":"-0.00000127","CLASSIFICATION_TYPE":"U","BSTAR":"0.00001037500000","MEAN_ANOMALY":"297.4488","FILE":"3485136","GP_ID":"205593447","OBJECT_NAME":"STARLINK-1504","OBJECT_TYPE":"PAYLOAD","SITE":"AFETR","EPOCH":"2022-06-07T16:32:45.735936","MEAN_ELEMENT_THEORY":"SGP4","RA_OF_ASC_NODE":"271.2765","TIME_SYSTEM":"UTC","ECCENTRICITY":"0.00017630","ELEMENT_SET_NO":"999","MEAN_MOTION_DDOT":"0.0000000000000","OBJECT_ID":"2020-038S","RCS_SIZE":"LARGE"},{"MEAN_MOTION_DDOT":"0.0000000000000","OBJECT_ID":"2020-038T","RCS_SIZE":"LARGE","TIME_SYSTEM":"UTC","ECCENTRICITY":"0.00014260","ELEMENT_SET_NO":"999","OBJECT_TYPE":"PAYLOAD","SITE":"AFETR","OBJECT_NAME":"STARLINK-1506","EPOCH":"2022-06-07T11:51:27.229824","RA_OF_ASC_NODE":"272.1579","MEAN_ELEMENT_THEORY":"SGP4","FILE":"3484919","GP_ID":"205562189","APOAPSIS":"548.189","CLASSIFICATION_TYPE":"U","BSTAR":"0.00004883600000","MEAN_ANOMALY":"308.0355","MEAN_MOTION_DOT":"0.00000446","REV_AT_EPOCH":"10952","PERIAPSIS":"546.214","REF_FRAME":"TEME","COUNTRY_CODE":"US","MEAN_MOTION":"15.06404001","DECAY_DATE":null,"PERIOD":"95.592","NORAD_CAT_ID":"45747","ARG_OF_PERICENTER":"52.0763","TLE_LINE1":"1 45747U 20038T   22158.49406516  .00000446  00000-0  48836-4 0  9990","CENTER_NAME":"EARTH","TLE_LINE2":"2 45747  53.0555 272.1579 0001426  52.0763 308.0355 15.06404001109523","LAUNCH_DATE":"2020-06-13","SEMIMAJOR_AXIS":"6925.336","EPHEMERIS_TYPE":"0","INCLINATION":"53.0555"},{"INCLINATION":"53.0548","LAUNCH_DATE":"2020-06-13","EPHEMERIS_TYPE":"0","SEMIMAJOR_AXIS":"6925.350","TLE_LINE2":"2 45748  53.0548 271.3073 0001475  68.4864 291.6282 15.06399669109544","CENTER_NAME":"EARTH","TLE_LINE1":"1 45748U 20038U   22158.68109981  .00000723  00000-0  67444-4 0  9992","ARG_OF_PERICENTER":"68.4864","NORAD_CAT_ID":"45748","PERIOD":"95.592","DECAY_DATE":null,"MEAN_MOTION":"15.06399669","COUNTRY_CODE":"US","REF_FRAME":"TEME","PERIAPSIS":"546.193","REV_AT_EPOCH":"10954","MEAN_MOTION_DOT":"0.00000723","MEAN_ANOMALY":"291.6282","BSTAR":"0.00006744400000","CLASSIFICATION_TYPE":"U","APOAPSIS":"548.236","GP_ID":"205591947","FILE":"3485136","MEAN_ELEMENT_THEORY":"SGP4","RA_OF_ASC_NODE":"271.3073","EPOCH":"2022-06-07T16:20:47.023584","OBJECT_NAME":"STARLINK-1507","SITE":"AFETR","OBJECT_TYPE":"PAYLOAD","ELEMENT_SET_NO":"999","ECCENTRICITY":"0.00014750","TIME_SYSTEM":"UTC","RCS_SIZE":"LARGE","OBJECT_ID":"2020-038U","MEAN_MOTION_DDOT":"0.0000000000000"},{"RCS_SIZE":"LARGE","MEAN_MOTION_DDOT":"0.0000000000000","OBJECT_ID":"2020-038W","ECCENTRICITY":"0.00014700","ELEMENT_SET_NO":"999","TIME_SYSTEM":"UTC","EPOCH":"2022-06-07T10:39:46.874592","MEAN_ELEMENT_THEORY":"SGP4","RA_OF_ASC_NODE":"252.3814","OBJECT_NAME":"STARLINK-1391","OBJECT_TYPE":"PAYLOAD","SITE":"AFETR","GP_ID":"205562689","FILE":"3484919","APOAPSIS":"548.218","MEAN_MOTION_DOT":"0.00000759","REV_AT_EPOCH":"10980","BSTAR":"0.00006981500000","MEAN_ANOMALY":"309.4887","CLASSIFICATION_TYPE":"U","COUNTRY_CODE":"US","REF_FRAME":"TEME","MEAN_MOTION":"15.06404318","PERIAPSIS":"546.182","ARG_OF_PERICENTER":"50.6232","TLE_LINE1":"1 45750U 20038W   22158.44429253  .00000759  00000-0  69815-4 0  9999","CENTER_NAME":"EARTH","DECAY_DATE":null,"NORAD_CAT_ID":"45750","PERIOD":"95.592","INCLINATION":"53.0543","SEMIMAJOR_AXIS":"6925.335","LAUNCH_DATE":"2020-06-13","EPHEMERIS_TYPE":"0","TLE_LINE2":"2 45750  53.0543 252.3814 0001470  50.6232 309.4887 15.06404318109807"},{"CENTER_NAME":"EARTH","ARG_OF_PERICENTER":"59.7376","TLE_LINE1":"1 45751U 20038X   22158.63965506  .00000350  00000-0  42411-4 0  9997","NORAD_CAT_ID":"45751","PERIOD":"95.592","DECAY_DATE":null,"INCLINATION":"53.0567","LAUNCH_DATE":"2020-06-13","EPHEMERIS_TYPE":"0","SEMIMAJOR_AXIS":"6925.361","TLE_LINE2":"2 45751  53.0567 251.5116 0001716  59.7376 300.3782 15.06395977109839","MEAN_MOTION_DOT":"0.00000350","REV_AT_EPOCH":"10983","BSTAR":"0.00004241100000","MEAN_ANOMALY":"300.3782","CLASSIFICATION_TYPE":"U","APOAPSIS":"548.414","MEAN_MOTION":"15.06395977","COUNTRY_CODE":"US","REF_FRAME":"TEME","PERIAPSIS":"546.037","MEAN_ELEMENT_THEORY":"SGP4","RA_OF_ASC_NODE":"251.5116","EPOCH":"2022-06-07T15:21:06.197184","OBJECT_NAME":"STARLINK-1464","SITE":"AFETR","OBJECT_TYPE":"PAYLOAD","GP_ID":"205592947","FILE":"3485136","RCS_SIZE":"LARGE","OBJECT_ID":"2020-038X","MEAN_MOTION_DDOT":"0.0000000000000","ELEMENT_SET_NO":"999","ECCENTRICITY":"0.00017160","TIME_SYSTEM":"UTC"}];
